NORAD_CAT_ID,OBJECT_NAME,OBJECT_TYPE,EPOCH,MEAN_MOTION,ECCENTRICITY,INCLINATION,RA_OF_ASC_NODE,ARG_OF_PERICENTER,MEAN_ANOMALY,BSTAR,MEAN_MOTION_DOT,MEAN_MOTION_DDOT,TLE_LINE0,TLE_LINE1,TLE_LINE2,SEMIMAJOR_AXIS,PERIOD,APOGEE,PERIGEE,DECAYED
55959.0,STARLINK-5929,PAYLOAD,2024-04-11 17:11:53,14.98312272,0.0003043,70.0007,221.7593,266.012,94.0691,-0.00020055,-2.484e-05,0.0,0 STARLINK-5929,1 55959U 23037AX  24102.71659334 -.00002484  00000-0 -20055-3 0  9990,2 55959  70.0007 221.7593 0003043 266.0120  94.0691 14.98312272 60076,6950.248,96.108,574.228,569.998,0.0
55959.0,STARLINK-5929,PAYLOAD,2024-04-12 01:12:33,14.98318286,0.0003108,70.0007,220.9177,266.5137,93.5667,-0.00010575,-1.354e-05,0.0,0 STARLINK-5929,1 55959U 23037AX  24103.05038975 -.00001354  00000-0 -10575-3 0  9991,2 55959  70.0007 220.9177 0003108 266.5137  93.5667 14.98318286 60461,6950.229,96.108,574.254,569.934,0.0
55959.0,STARLINK-5929,PAYLOAD,2024-04-12 12:25:29,14.98323968,0.0003243,70.0006,219.7394,263.5385,96.5405,-8.2982e-06,-1.92e-06,0.0,0 STARLINK-5929,1 55959U 23037AX  24103.51770560 -.00000192  00000-0 -82982-5 0  9997,2 55959  70.0006 219.7394 0003243 263.5385  96.5405 14.98323968 60533,6950.212,96.107,574.33,569.823,0.0
55959.0,STARLINK-5929,PAYLOAD,2024-04-12 14:01:37,14.98341081,0.0001849,70.0006,219.571,236.2972,123.8011,-0.00029829,-3.651e-05,0.0,0 STARLINK-5929,1 55959U 23037AX  24103.58446391 -.00003651  00000-0 -29829-3 0  9998,2 55959  70.0006 219.5710 0001849 236.2972 123.8011 14.98341081 60209,6950.159,96.106,573.309,570.739,0.0
55959.0,STARLINK-5929,PAYLOAD,2024-04-13 14:03:37,14.9833414,0.0003291,70.0007,217.0461,265.3109,94.7674,0.00033576,3.916e-05,0.0,0 STARLINK-5929,1 55959U 23037AX  24104.58585028  .00003916  00000-0  33576-3 0  9996,2 55959  70.0007 217.0461 0003291 265.3109  94.7674 14.98334140 60359,6950.18,96.107,574.332,569.758,0.0
55959.0,STARLINK-5929,PAYLOAD,2024-04-13 17:15:53,14.9833978,0.0003259,70.0007,216.7097,265.2857,94.793,0.00038508,4.506e-05,0.0,0 STARLINK-5929,1 55959U 23037AX  24104.71936474  .00004506  00000-0  38508-3 0  9992,2 55959  70.0007 216.7097 0003259 265.2857  94.7930 14.98339780 60713,6950.163,96.106,574.293,569.763,0.0
55959.0,STARLINK-5929,PAYLOAD,2024-04-14 12:29:30,14.98336108,0.0003026,70.0017,214.6898,267.8265,92.2548,8.042e-05,8.67e-06,0.0,0 STARLINK-5929,1 55959U 23037AX  24105.52049336  .00000867  00000-0  80420-4 0  9991,2 55959  70.0017 214.6898 0003026 267.8265  92.2548 14.98336108 60835,6950.174,96.107,574.142,569.936,0.0
55959.0,STARLINK-5929,PAYLOAD,2024-04-14 17:17:54,14.98337595,0.0003093,70.0015,214.1853,268.6285,91.452,8.0164e-05,8.64e-06,0.0,0 STARLINK-5929,1 55959U 23037AX  24105.72077104  .00000864  00000-0  80164-4 0  9999,2 55959  70.0015 214.1853 0003093 268.6285  91.4520 14.98337595 60522,6950.169,96.107,574.184,569.885,0.0
55959.0,STARLINK-5929,PAYLOAD,2024-04-15 12:31:31,14.98340098,0.0002712,70.0027,212.1665,257.0108,103.0749,-0.00012087,-1.535e-05,0.0,0 STARLINK-5929,1 55959U 23037AX  24106.52188895 -.00001535  00000-0 -12087-3 0  9994,2 55959  70.0027 212.1665 0002712 257.0108 103.0749 14.98340098 60982,6950.162,96.106,573.912,570.142,0.0
55959.0,STARLINK-5929,PAYLOAD,2024-04-15 14:07:39,14.98352532,0.0002515,70.0029,211.9991,252.3884,107.7,-0.00032089,-3.922e-05,0.0,0 STARLINK-5929,1 55959U 23037AX  24106.58864677 -.00003922  00000-0 -32089-3 0  9995,2 55959  70.0029 211.9991 0002515 252.3884 107.7000 14.98352532 60654,6950.123,96.106,573.736,570.24,0.0
55959.0,STARLINK-5929,PAYLOAD,2024-04-15 17:19:55,14.98342782,0.0002752,70.003,211.6626,256.9828,103.1023,-0.00011323,-1.444e-05,0.0,0 STARLINK-5929,1 55959U 23037AX  24106.72216568 -.00001444  00000-0 -11323-3 0  9996,2 55959  70.0030 211.6626 0002752 256.9828 103.1023 14.98342782 60672,6950.153,96.106,573.931,570.106,0.0
55959.0,STARLINK-5929,PAYLOAD,2024-04-16 10:57:24,14.98321007,0.0002269,70.003,209.8117,256.4122,103.6785,0.00011885,1.325e-05,0.0,0 STARLINK-5929,1 55959U 23037AX  24107.45653062  .00001325  00000-0  11885-3 0  9990,2 55959  70.0030 209.8117 0002269 256.4122 103.6785 14.98321007 61129,6950.221,96.108,573.663,570.509,0.0
55959.0,STARLINK-5929,PAYLOAD,2024-04-16 14:09:39,14.98338303,0.0002173,70.0028,209.4746,252.5263,107.5659,-2.4353e-05,-3.83e-06,0.0,0 STARLINK-5929,1 55959U 23037AX  24107.59004341 -.00000383  00000-0 -24353-4 0  9995,2 55959  70.0028 209.4746 0002173 252.5263 107.5659 14.98338303 60801,6950.167,96.106,573.542,570.522,0.0
55959.0,STARLINK-5929,PAYLOAD,2024-04-16 15:45:47,14.98334546,0.000238,70.0026,209.3048,253.3885,106.7013,5.8921e-05,6.1e-06,0.0,0 STARLINK-5929,1 55959U 23037AX  24107.65680347  .00000610  00000-0  58921-4 0  9997,2 55959  70.0026 209.3048 0002380 253.3885 106.7013 14.98334546 61151,6950.179,96.107,573.698,570.39,0.0
55959.0,STARLINK-5929,PAYLOAD,2024-04-17 12:35:33,14.98322699,0.0003019,70.0019,207.1179,249.1502,110.9333,-0.00011461,-1.46e-05,0.0,0 STARLINK-5929,1 55959U 23037AX  24108.52469540 -.00001460  00000-0 -11461-3 0  9997,2 55959  70.0019 207.1179 0003019 249.1502 110.9333 14.98322699 61285,6950.215,96.107,574.179,569.982,0.0
55959.0,STARLINK-5929,PAYLOAD,2024-04-17 14:11:41,14.98322352,0.0002951,70.0023,206.9502,247.1467,112.938,-0.00010874,-1.39e-05,0.0,0 STARLINK-5929,1 55959U 23037AX  24108.59145617 -.00001390  00000-0 -10874-3 0  9999,2 55959  70.0023 206.9502 0002951 247.1467 112.9380 14.98322352 60952,6950.217,96.107,574.133,570.031,0.0
55959.0,STARLINK-5929,PAYLOAD,2024-04-17 15:47:49,14.98324083,0.0003098,70.0015,206.7809,254.1223,105.9594,-9.8126e-05,-1.263e-05,0.0,0 STARLINK-5929,1 55959U 23037AX  24108.65821497 -.00001263  00000-0 -98126-4 0  9999,2 55959  70.0015 206.7809 0003098 254.1223 105.9594 14.98324083 60965,6950.211,96.107,574.229,569.923,0.0
55959.0,STARLINK-5929,PAYLOAD,2024-04-18 12:37:34,14.98327546,0.0002904,70.002,204.5937,254.4662,105.6176,1.6713e-05,1.06e-06,0.0,0 STARLINK-5929,1 55959U 23037AX  24109.52609373  .00000106  00000-0  16713-4 0  9998,2 55959  70.0020 204.5937 0002904 254.4662 105.6176 14.98327546 61437,6950.2,96.107,574.084,570.047,0.0
55959.0,STARLINK-5929,PAYLOAD,2024-04-18 14:13:42,14.98327896,0.000299,70.0018,204.4256,254.9037,105.1791,0.00010034,1.104e-05,0.0,0 STARLINK-5929,1 55959U 23037AX  24109.59285107  .00001104  00000-0  10034-3 0  9998,2 55959  70.0018 204.4256 0002990 254.9037 105.1791 14.98327896 61103,6950.199,96.107,574.143,569.986,0.0
55959.0,STARLINK-5929,PAYLOAD,2024-04-18 15:49:50,14.98328054,0.0002906,70.002,204.2581,252.0003,108.0839,0.00013761,1.549e-05,0.0,0 STARLINK-5929,1 55959U 23037AX  24109.65961014  .00001549  00000-0  13761-3 0  9996,2 55959  70.0020 204.2581 0002906 252.0003 108.0839 14.98328054 61117,6950.199,96.107,574.084,570.044,0.0
55959.0,STARLINK-5929,PAYLOAD,2024-04-19 12:39:35,14.98326839,0.0002788,70.0025,202.0704,240.4798,119.6083,0.00017086,1.946e-05,0.0,0 STARLINK-5929,1 55959U 23037AX  24110.52749139  .00001946  00000-0  17086-3 0  9991,2 55959  70.0025 202.0704 0002788 240.4798 119.6083 14.98326839 61584,6950.203,96.107,574.005,570.13,0.0
55959.0,STARLINK-5929,PAYLOAD,2024-04-19 14:15:42,14.98331626,0.0002767,70.0026,201.9023,236.0453,124.0443,0.00022728,2.62e-05,0.0,0 STARLINK-5929,1 55959U 23037AX  24110.59424669  .00002620  00000-0  22728-3 0  9995,2 55959  70.0026 201.9023 0002767 236.0453 124.0443 14.98331626 61257,6950.188,96.107,573.976,570.13,0.0
55959.0,STARLINK-5929,PAYLOAD,2024-04-19 15:51:50,14.9833636,0.0002999,70.0006,201.7305,262.4407,97.6411,0.00022004,2.534e-05,0.0,0 STARLINK-5929,1 55959U 23037AX  24110.66100451  .00002534  00000-0  22004-3 0  9994,2 55959  70.0006 201.7305 0002999 262.4407  97.6411 14.98336360 61604,6950.173,96.107,574.123,569.954,0.0
55959.0,STARLINK-5929,PAYLOAD,2024-04-20 12:41:34,14.98349614,0.0003018,70.0008,199.5426,264.3272,95.7543,0.00015079,1.708e-05,0.0,0 STARLINK-5929,1 55959U 23037AX  24111.52887263  .00001708  00000-0  15079-3 0  9999,2 55959  70.0008 199.5426 0003018 264.3272  95.7543 14.98349614 61733,6950.132,96.106,574.095,569.9,0.0
55959.0,STARLINK-5929,PAYLOAD,2024-04-20 14:17:42,14.98354469,0.0003066,70.0006,199.3746,264.0315,96.0495,0.00019732,2.264e-05,0.0,0 STARLINK-5929,1 55959U 23037AX  24111.59562753  .00002264  00000-0  19732-3 0  9998,2 55959  70.0006 199.3746 0003066 264.0315  96.0495 14.98354469 61400,6950.117,96.105,574.113,569.851,0.0
55959.0,STARLINK-5929,PAYLOAD,2024-04-20 15:53:49,14.98356828,0.0003046,70.0008,199.2067,262.6838,97.3975,0.00022443,2.588e-05,0.0,0 STARLINK-5929,1 55959U 23037AX  24111.66238405  .00002588  00000-0  22443-3 0  9992,2 55959  70.0008 199.2067 0003046 262.6838  97.3975 14.98356828 61755,6950.11,96.105,574.092,569.858,0.0
55959.0,STARLINK-5929,PAYLOAD,2024-04-21 04:42:57,14.98318156,0.0003225,70.0002,197.8598,267.1773,92.9017,-0.00028615,-3.505e-05,0.0,0 STARLINK-5929,1 55959U 23037AX  24112.19650244 -.00003505  00000-0 -28615-3 0  9999,2 55959  70.0002 197.8598 0003225 267.1773  92.9017 14.98318156 61838,6950.23,96.108,574.336,569.853,0.0
55959.0,STARLINK-5929,PAYLOAD,2024-04-21 14:19:46,14.98313026,0.0002921,70.0006,196.8484,262.552,97.5307,-0.00028224,-3.457e-05,0.0,0 STARLINK-5929,1 55959U 23037AX  24112.59706899 -.00003457  00000-0 -28224-3 0  9993,2 55959  70.0006 196.8484 0002921 262.5520  97.5307 14.98313026 61559,6950.245,96.108,574.141,570.08,0.0
55959.0,STARLINK-5929,PAYLOAD,2024-04-21 15:55:54,14.98313886,0.0002954,70.0012,196.6837,246.78,113.3048,-0.0002677,-3.284e-05,0.0,0 STARLINK-5929,1 55959U 23037AX  24112.66382809 -.00003284  00000-0 -26770-3 0  9994,2 55959  70.0012 196.6837 0002954 246.7800 113.3048 14.98313886 61561,6950.243,96.108,574.161,570.055,0.0
55959.0,STARLINK-5929,PAYLOAD,2024-04-22 04:44:58,14.98330092,0.0003348,70.0002,195.334,266.9058,93.1718,-0.00017176,-2.142e-05,0.0,0 STARLINK-5929,1 55959U 23037AX  24113.19789704 -.00002142  00000-0 -17176-3 0  9990,2 55959  70.0002 195.3340 0003348 266.9058  93.1718 14.98330092 61985,6950.193,96.107,574.385,569.731,0.0
